[
  {
    "object_name": "CALSPHERE1",
    "object_id": "1964-063C",
    "norad_cat_id": 900,
    "owner": "US",
    "launch_date": "1964-10-06",
    "launch_site": "AFWTR",
    "tle1": "1 00900U 64063C   23166.90618679  .00000682  00000+0  71092-3 0  9999",
    "tle2": "2 00900  90.1900  47.8353 0027890  12.7331 359.2302 13.74347431920577",
    "type": "satellite"
  },
  {
    "object_name": "CALSPHERE2",
    "object_id": "1964-063E",
    "norad_cat_id": 902,
    "owner": "US",
    "launch_date": "1964-10-06",
    "launch_site": "AFWTR",
    "tle1": "1 00902U 64063E   23167.01038292  .00000059  00000+0  75156-4 0  9995",
    "tle2": "2 00902  90.2054  51.1810 0018718 166.3762 260.7624 13.52752701708370",
    "type": "satellite"
  },
  {
    "object_name": "LES-5",
    "object_id": "1967-066E",
    "norad_cat_id": 2866,
    "owner": "US",
    "launch_date": "1967-07-01",
    "launch_site": "AFETR",
    "tle1": "1 02866U 67066E   23166.82459253 -.00000063  00000+0  00000+0 0  9991",
    "tle2": "2 02866   0.7957 197.2904 0051629  93.0871 109.6203  1.09425420119026",
    "type": "satellite"
  },
  {
    "object_name": "SURCAL159",
    "object_id": "1967-053F",
    "norad_cat_id": 2872,
    "owner": "US",
    "launch_date": "1967-05-31",
    "launch_site": "AFWTR",
    "tle1": "1 02872U 67053F   23166.78586104  .00000106  00000+0  11035-3 0  9996",
    "tle2": "2 02872  69.9730 202.8517 0004214 117.9776 242.1758 13.99038108856683",
    "type": "satellite"
  },
  {
    "object_name": "OPS5712(P/L153)",
    "object_id": "1967-053H",
    "norad_cat_id": 2874,
    "owner": "US",
    "launch_date": "1967-05-31",
    "launch_site": "AFWTR",
    "tle1": "1 02874U 67053H   23167.08712493  .00000042  00000+0  69054-4 0  9998",
    "tle2": "2 02874  69.9742 306.2208 0007874 199.4338 160.6469 13.96484444854077",
    "type": "satellite"
  },
  {
    "object_name": "SURCAL150B",
    "object_id": "1967-053J",
    "norad_cat_id": 2909,
    "owner": "US",
    "launch_date": "1967-05-31",
    "launch_site": "AFWTR",
    "tle1": "1 02909U 67053J   23166.86990285  .00009132  00000+0  15392-2 0  9992",
    "tle2": "2 02909  69.9440 125.1071 0005985 236.5715 123.4857 14.69746393916881",
    "type": "satellite"
  },
  {
    "object_name": "OPS3811(DSP2)",
    "object_id": "1971-039A",
    "norad_cat_id": 5204,
    "owner": "US",
    "launch_date": "1971-05-05",
    "launch_site": "AFETR",
    "tle1": "1 05204U 71039A   23166.87844998 -.00000077  00000+0  00000+0 0  9999",
    "tle2": "2 05204   2.6139 284.7032 0017618 350.9260  55.2879  0.98160240195469",
    "type": "satellite"
  },
  {
    "object_name": "RIGIDSPHERE2(LCS4)",
    "object_id": "1971-067E",
    "norad_cat_id": 5398,
    "owner": "US",
    "launch_date": "1971-08-07",
    "launch_site": "AFWTR",
    "tle1": "1 05398U 71067E   23166.83989008  .00000780  00000+0  26328-3 0  9997",
    "tle2": "2 05398  87.6195 282.6354 0060214 265.7704  93.6610 14.34854044716351",
    "type": "satellite"
  },
  {
    "object_name": "LCS1",
    "object_id": "1965-034C",
    "norad_cat_id": 1361,
    "owner": "US",
    "launch_date": "1965-05-06",
    "launch_site": "AFETR",
    "tle1": "1 01361U 65034C   23166.74148278  .00000019  00000+0  14517-2 0  9997",
    "tle2": "2 01361  32.1406 262.7373 0007645  92.3524 267.7848  9.89303201101207",
    "type": "satellite"
  },
  {
    "object_name": "TEMPSAT1",
    "object_id": "1965-065E",
    "norad_cat_id": 1512,
    "owner": "US",
    "launch_date": "1965-08-13",
    "launch_site": "AFWTR",
    "tle1": "1 01512U 65065E   23166.88892860  .00000044  00000+0  68326-4 0  9994",
    "tle2": "2 01512  89.9335 216.0083 0071996  90.0837  83.2389 13.33479711813809",
    "type": "satellite"
  },
  {
    "object_name": "CALSPHERE4A",
    "object_id": "1965-065H",
    "norad_cat_id": 1520,
    "owner": "US",
    "launch_date": "1965-08-13",
    "launch_site": "AFWTR",
    "tle1": "1 01520U 65065H   23166.90591924  .00000092  00000+0  16031-3 0  9991",
    "tle2": "2 01520  89.9697 129.5329 0067785 320.4905  93.2026 13.35969481816180",
    "type": "satellite"
  },
  {
    "object_name": "OPS5712(P/L160)",
    "object_id": "1967-053A",
    "norad_cat_id": 2826,
    "owner": "US",
    "launch_date": "1967-05-31",
    "launch_site": "AFWTR",
    "tle1": "1 02826U 67053A   23166.88508208  .00004567  00000+0  10994-2 0  9992",
    "tle2": "2 02826  69.9253 154.7022 0006915 217.8779 142.1871 14.53866559905489",
    "type": "satellite"
  }
]